TEIKYOSAT-4 (OORURI)    
1 49396U 21102B   26068.67534185  .00002438  00000+0  15740-3 0  9994
2 49396  97.3797 101.9931 0010345 276.5421  83.4630 15.09119208237719
STARLINK-3332           
1 50825U 22001Y   26068.74688913 -.00000755  00000+0 -29361-4 0  9996
2 50825  53.2155 168.8647 0001151  80.4473 279.6649 15.08846097230418
